[
 {
   "Column1": 0,
   "city_id": 2,
   "name_ru": "Архангельск",
   "region_ru": "Архангельская область"
 },
 {
   "Column1": 14,
   "city_id": 3,
   "name_ru": "Астрахань",
   "region_ru": "Астраханская область"
 },
 {
   "Column1": 28,
   "city_id": 4,
   "name_ru": "Барнаул",
   "region_ru": "Алтайский край"
 },
 {
   "Column1": 42,
   "city_id": 5,
   "name_ru": "Белгород",
   "region_ru": "Белгородская область"
 },
 {
   "Column1": 56,
   "city_id": 6,
   "name_ru": "Биробиджан",
   "region_ru": "Еврейская автономная область"
 },
 {
   "Column1": 70,
   "city_id": 7,
   "name_ru": "Брянск",
   "region_ru": "Брянская область"
 },
 {
   "Column1": 84,
   "city_id": 8,
   "name_ru": "Великий Новгород",
   "region_ru": "Новгородская область"
 },
 {
   "Column1": 98,
   "city_id": 9,
   "name_ru": "Владивосток",
   "region_ru": "Приморский край"
 },
 {
   "Column1": 112,
   "city_id": 10,
   "name_ru": "Владикавказ",
   "region_ru": "Северная Осетия — Алания"
 },
 {
   "Column1": 126,
   "city_id": 11,
   "name_ru": "Владимир",
   "region_ru": "Владимирская область"
 },
 {
   "Column1": 140,
   "city_id": 12,
   "name_ru": "Волгоград",
   "region_ru": "Волгоградская область"
 },
 {
   "Column1": 154,
   "city_id": 13,
   "name_ru": "Вологда",
   "region_ru": "Вологодская область"
 },
 {
   "Column1": 168,
   "city_id": 14,
   "name_ru": "Воронеж",
   "region_ru": "Воронежская область"
 },
 {
   "Column1": 182,
   "city_id": 15,
   "name_ru": "Екатеринбург",
   "region_ru": "Свердловская область"
 },
 {
   "Column1": 196,
   "city_id": 16,
   "name_ru": "Ижевск",
   "region_ru": "Удмуртия"
 },
 {
   "Column1": 210,
   "city_id": 17,
   "name_ru": "Иркутск",
   "region_ru": "Иркутская область"
 },
 {
   "Column1": 224,
   "city_id": 18,
   "name_ru": "Казань",
   "region_ru": "Татарстан"
 },
 {
   "Column1": 238,
   "city_id": 19,
   "name_ru": "Калининград",
   "region_ru": "Калининградская область"
 },
 {
   "Column1": 252,
   "city_id": 20,
   "name_ru": "Кемерово",
   "region_ru": "Кемеровская область"
 },
 {
   "Column1": 266,
   "city_id": 21,
   "name_ru": "Киров",
   "region_ru": "Кировская область"
 },
 {
   "Column1": 280,
   "city_id": 22,
   "name_ru": "Краснодар",
   "region_ru": "Краснодарский край"
 },
 {
   "Column1": 294,
   "city_id": 23,
   "name_ru": "Красноярск",
   "region_ru": "Красноярский край"
 },
 {
   "Column1": 308,
   "city_id": 24,
   "name_ru": "Курск",
   "region_ru": "Курская область"
 },
 {
   "Column1": 322,
   "city_id": 25,
   "name_ru": "Липецк",
   "region_ru": "Липецкая область"
 },
 {
   "Column1": 336,
   "city_id": 26,
   "name_ru": "Магадан",
   "region_ru": "Магаданская область"
 },
 {
   "Column1": 350,
   "city_id": 27,
   "name_ru": "Москва",
   "region_ru": "Московская область"
 },
 {
   "Column1": 364,
   "city_id": 28,
   "name_ru": "Мурманск",
   "region_ru": "Мурманская область"
 },
 {
   "Column1": 378,
   "city_id": 29,
   "name_ru": "Нижний Новгород",
   "region_ru": "Нижегородская область"
 },
 {
   "Column1": 392,
   "city_id": 30,
   "name_ru": "Новосибирск",
   "region_ru": "Новосибирская область"
 },
 {
   "Column1": 406,
   "city_id": 31,
   "name_ru": "Омск",
   "region_ru": "Омская область"
 },
 {
   "Column1": 420,
   "city_id": 32,
   "name_ru": "Орел",
   "region_ru": "Орловская область"
 },
 {
   "Column1": 434,
   "city_id": 33,
   "name_ru": "Оренбург",
   "region_ru": "Оренбургская область"
 },
 {
   "Column1": 448,
   "city_id": 34,
   "name_ru": "Пенза",
   "region_ru": "Пензенская область"
 },
 {
   "Column1": 462,
   "city_id": 35,
   "name_ru": "Пермь",
   "region_ru": "Пермский край"
 },
 {
   "Column1": 476,
   "city_id": 36,
   "name_ru": "Петрозаводск",
   "region_ru": "Карелия"
 },
 {
   "Column1": 490,
   "city_id": 37,
   "name_ru": "Петропавловск-Камчатский",
   "region_ru": "Камчатский край"
 },
 {
   "Column1": 504,
   "city_id": 38,
   "name_ru": "Псков",
   "region_ru": "Псковская область"
 },
 {
   "Column1": 518,
   "city_id": 39,
   "name_ru": "Ростов-на-Дону",
   "region_ru": "Ростовская область"
 },
 {
   "Column1": 532,
   "city_id": 40,
   "name_ru": "Рязань",
   "region_ru": "Рязанская область"
 },
 {
   "Column1": 546,
   "city_id": 41,
   "name_ru": "Самара",
   "region_ru": "Самарская область"
 },
 {
   "Column1": 560,
   "city_id": 42,
   "name_ru": "Санкт-Петербург",
   "region_ru": "Ленинградская область"
 },
 {
   "Column1": 574,
   "city_id": 43,
   "name_ru": "Саратов",
   "region_ru": "Саратовская область"
 },
 {
   "Column1": 588,
   "city_id": 44,
   "name_ru": "Смоленск",
   "region_ru": "Смоленская область"
 },
 {
   "Column1": 602,
   "city_id": 45,
   "name_ru": "Ставрополь",
   "region_ru": "Ставропольский край"
 },
 {
   "Column1": 616,
   "city_id": 46,
   "name_ru": "Сыктывкар",
   "region_ru": "Республика Коми"
 },
 {
   "Column1": 630,
   "city_id": 47,
   "name_ru": "Тверь",
   "region_ru": "Тверская область"
 },
 {
   "Column1": 644,
   "city_id": 48,
   "name_ru": "Томск",
   "region_ru": "Томская область"
 },
 {
   "Column1": 658,
   "city_id": 49,
   "name_ru": "Тула",
   "region_ru": "Тульская область"
 },
 {
   "Column1": 672,
   "city_id": 50,
   "name_ru": "Улан-Удэ",
   "region_ru": "Бурятия"
 },
 {
   "Column1": 686,
   "city_id": 51,
   "name_ru": "Ульяновск",
   "region_ru": "Ульяновская область"
 },
 {
   "Column1": 700,
   "city_id": 52,
   "name_ru": "Уфа",
   "region_ru": "Башкортостан"
 },
 {
   "Column1": 714,
   "city_id": 53,
   "name_ru": "Хабаровск",
   "region_ru": "Хабаровский край"
 },
 {
   "Column1": 728,
   "city_id": 54,
   "name_ru": "Чебоксары",
   "region_ru": "Чувашия"
 },
 {
   "Column1": 742,
   "city_id": 55,
   "name_ru": "Челябинск",
   "region_ru": "Челябинская область"
 },
 {
   "Column1": 756,
   "city_id": 56,
   "name_ru": "Чита",
   "region_ru": "Забайкальский край"
 },
 {
   "Column1": 770,
   "city_id": 57,
   "name_ru": "Южно-Сахалинск",
   "region_ru": "Сахалинская область"
 },
 {
   "Column1": 784,
   "city_id": 58,
   "name_ru": "Якутск",
   "region_ru": "Республика Саха (Якутия)"
 },
 {
   "Column1": 798,
   "city_id": 59,
   "name_ru": "Ярославль",
   "region_ru": "Ярославская область"
 },
 {
   "Column1": 812,
   "city_id": 131,
   "name_ru": "Майкоп",
   "region_ru": "Адыгея"
 },
 {
   "Column1": 826,
   "city_id": 132,
   "name_ru": "Благовещенск",
   "region_ru": "Амурская область"
 },
 {
   "Column1": 840,
   "city_id": 133,
   "name_ru": "Грозный",
   "region_ru": "Чечня"
 },
 {
   "Column1": 854,
   "city_id": 134,
   "name_ru": "Анадырь",
   "region_ru": "Чукотский автономный округ"
 },
 {
   "Column1": 868,
   "city_id": 135,
   "name_ru": "Махачкала",
   "region_ru": "Дагестан"
 },
 {
   "Column1": 882,
   "city_id": 136,
   "name_ru": "Горно-Алтайск",
   "region_ru": "Реуспублика Алтай"
 },
 {
   "Column1": 896,
   "city_id": 137,
   "name_ru": "Магас",
   "region_ru": "Ингушетия"
 },
 {
   "Column1": 910,
   "city_id": 138,
   "name_ru": "Иваново",
   "region_ru": "Ивановская область"
 },
 {
   "Column1": 924,
   "city_id": 139,
   "name_ru": "Нальчик",
   "region_ru": "Кабардино-Балкария"
 },
 {
   "Column1": 938,
   "city_id": 140,
   "name_ru": "Черкесск",
   "region_ru": "Карачаево-Черкесия"
 },
 {
   "Column1": 952,
   "city_id": 141,
   "name_ru": "Калуга",
   "region_ru": "Калужская область"
 },
 {
   "Column1": 966,
   "city_id": 142,
   "name_ru": "Абакан",
   "region_ru": "Хакасия"
 },
 {
   "Column1": 980,
   "city_id": 143,
   "name_ru": "Элиста",
   "region_ru": "Калмыкия"
 },
 {
   "Column1": 994,
   "city_id": 144,
   "name_ru": "Ханты-Мансийск",
   "region_ru": "Ханты-Мансийский автономный округ"
 },
 {
   "Column1": 1008,
   "city_id": 145,
   "name_ru": "Кострома",
   "region_ru": "Костромская область"
 },
 {
   "Column1": 1022,
   "city_id": 146,
   "name_ru": "Курган",
   "region_ru": "Курганская область"
 },
 {
   "Column1": 1036,
   "city_id": 147,
   "name_ru": "Йошкар-Ола",
   "region_ru": "Марий Эл"
 },
 {
   "Column1": 1050,
   "city_id": 148,
   "name_ru": "Саранск",
   "region_ru": "Мордовия"
 },
 {
   "Column1": 1064,
   "city_id": 149,
   "name_ru": "Нарьян-Мар",
   "region_ru": "Ненецкий автономный округ"
 },
 {
   "Column1": 1078,
   "city_id": 150,
   "name_ru": "Тамбов",
   "region_ru": "Тамбовская область"
 },
 {
   "Column1": 1092,
   "city_id": 151,
   "name_ru": "Кызыл",
   "region_ru": "Тыва"
 },
 {
   "Column1": 1106,
   "city_id": 152,
   "name_ru": "Тюмень",
   "region_ru": "Тюменская область"
 },
 {
   "Column1": 1120,
   "city_id": 153,
   "name_ru": "Салехард",
   "region_ru": "Ямало-Ненецкий автономный округ"
 },
 {
   "Column1": 1134,
   "city_id": 154,
   "name_ru": "Севастополь",
   "region_ru": "Крым"
 }
]