[
    {
        "latitude": "56",
        "longitude": "38",
        "event": "MOSCOW",
        "name_ru": "Москва",
        "region_ru": "Московская область",
        "min_payment": "27,859"
    },
    {
        "latitude": "56",
        "longitude": "38",
        "event": "MOSCOW-OBL",
        "name_ru": "Москва",
        "region_ru": "Московская область",
        "min_payment": "19,966"
    },
    {
        "latitude": "60",
        "longitude": "30",
        "event": "ST-PETERSBURG",
        "name_ru": "Санкт-Петербург",
        "region_ru": "Ленинградская область",
        "min_payment": "20,894"
    },
    {
        "latitude": "60",
        "longitude": "30",
        "event": "ST-PETERSBURG-OBL",
        "name_ru": "Санкт-Петербург",
        "region_ru": "Ленинградская область",
        "min_payment": "19,037"
    },
    {
        "latitude": "57",
        "longitude": "61",
        "event": "EKATERINBURG",
        "name_ru": "Екатеринбург",
        "region_ru": "Свердловская область",
        "min_payment": "15,323"
    },
    {
        "latitude": "57",
        "longitude": "61",
        "event": "EKATERINBURG",
        "name_ru": "Екатеринбург",
        "region_ru": "Свердловская область",
        "min_payment": "13,930"
    },
    {
        "latitude": "55",
        "longitude": "83",
        "event": "NOVOSIBIRSK",
        "name_ru": "Новосибирск",
        "region_ru": "Новосибирская область",
        "min_payment": "17,180"
    },
    {
        "latitude": "55",
        "longitude": "83",
        "event": "NOVOSIBIRSK",
        "name_ru": "Новосибирск",
        "region_ru": "Новосибирская область",
        "min_payment": "16,716"
    },
    {
        "latitude": "56",
        "longitude": "44",
        "event": "NIJNII-NOVGOROD",
        "name_ru": "Нижний Новгород",
        "region_ru": "Нижегородская область",
        "min_payment": "16,716"
    },
    {
        "latitude": "43",
        "longitude": "132",
        "event": "VLADIVOSTOK",
        "name_ru": "Владивосток",
        "region_ru": "Приморский край",
        "min_payment": "22,405"
    },
    {
        "latitude": "49",
        "longitude": "45",
        "event": "VOLGOGRAD",
        "name_ru": "Волгоград",
        "region_ru": "Волгоградская область",
        "min_payment": "13,930"
    },
    {
        "latitude": "52",
        "longitude": "39",
        "event": "VORONEJ",
        "name_ru": "Воронеж",
        "region_ru": "Воронежская область",
        "min_payment": "14,394"
    },
    {
        "latitude": "57",
        "longitude": "53",
        "event": "IZHEVSK",
        "name_ru": "Ижевск",
        "region_ru": "Удмуртия",
        "min_payment": "12,072"
    },
    {
        "latitude": "56",
        "longitude": "49",
        "event": "KAZAN",
        "name_ru": "Казань",
        "region_ru": "Татарстан",
        "min_payment": "20,894"
    },
    {
        "latitude": "45",
        "longitude": "39",
        "event": "KRASNODAR",
        "name_ru": "Краснодар",
        "region_ru": "Краснодарский край",
        "min_payment": "15,323"
    },
    {
        "latitude": "56",
        "longitude": "93",
        "event": "KRASNOYARSK",
        "name_ru": "Красноярск",
        "region_ru": "Красноярский край",
        "min_payment": "17,180"
    },
    {
        "latitude": "55",
        "longitude": "73",
        "event": "OMSK",
        "name_ru": "Омск",
        "region_ru": "Омская область",
        "min_payment": "11,608"
    },
    {
        "latitude": "58",
        "longitude": "56",
        "event": "PERM",
        "name_ru": "Пермь",
        "region_ru": "Пермский край",
        "min_payment": "18,573"
    },
    {
        "latitude": "47",
        "longitude": "40",
        "event": "ROSTOV-NA-DONU",
        "name_ru": "Ростов-на-Дону",
        "region_ru": "Ростовская область",
        "min_payment": "12,537"
    },
    {
        "latitude": "53",
        "longitude": "50",
        "event": "SAMARA",
        "name_ru": "Самара",
        "region_ru": "Самарская область",
        "min_payment": "16,251"
    },
    {
        "latitude": "45",
        "longitude": "42",
        "event": "STAVROPOL",
        "name_ru": "Ставрополь",
        "region_ru": "Ставропольский край",
        "min_payment": "13,930"
    },
    {
        "latitude": "55",
        "longitude": "56",
        "event": "UFA",
        "name_ru": "Уфа",
        "region_ru": "Башкортостан",
        "min_payment": "18,573"
    },
    {
        "latitude": "55",
        "longitude": "61",
        "event": "CHELYABINSK",
        "name_ru": "Челябинск",
        "region_ru": "Челябинская область",
        "min_payment": "16,251"
    }
]
